ORBCOMM FM33            
1 25983U 99065D   24290.41292296  .00004557  00000+0  15185-2 0  9990
2 25983  45.0283  76.8671 0009100 265.7714  94.2095 14.38621231300944
ORBCOMM FM36            
1 25984U 99065E   24290.33300698  .00004186  00000+0  14557-2 0  9998
2 25984  45.0381 165.4041 0003394 144.5240 215.5834 14.36658476299335
ORBCOMM FM35            
1 25985U 99065F   24290.64327327  .00003001  00000+0  10726-2 0  9990
2 25985  45.0384 167.2449 0002973 262.8196  97.2314 14.35941753299955
ORBCOMM FM34            
1 25986U 99065G   24290.61542725  .00003196  00000+0  11388-2 0  9999
2 25986  45.0377 167.9235 0003181 198.7288 161.3444 14.35960470299874
ORBCOMM FM38            
1 33060U 08031A   24290.48539348  .00005877  00000+0  81262-3 0  9993
2 33060  48.4414  34.9143 0004382  65.8400 294.2973 14.79094290878647
ORBCOMM FM41            
1 33061U 08031B   24290.36943507  .00005669  00000+0  79078-3 0  9998
2 33061  48.4446  42.4729 0003732  47.6236   9.4452 14.78774814878127
ORBCOMM FM29            
1 33062U 08031C   24290.49608205  .00006006  00000+0  83628-3 0  9998
2 33062  48.4395  49.8898 0005412  50.3917 357.5084 14.78764674878056
ORBCOMM FM39            
1 33063U 08031D   24290.43342426  .00005834  00000+0  83589-3 0  9997
2 33063  48.4398  72.0009 0006550  24.5310 335.5915 14.77581991877726
